MOLNIYA 2-9             
1 07276U 74026A   24195.23945627  .00000117  00000+0  00000+0 0  9997
2 07276  64.2927 124.8230 6451005 270.6801  21.3296  2.45097858267768
MOLNIYA 2-10            
1 07376U 74056A   24190.18889940  .00001075  00000+0  00000+0 0  9999
2 07376  65.2062  14.5898 6845587 279.0383  14.9970  2.01128372365477
MOLNIYA 1-S             
1 07392U 74060A   24196.58232644 -.00000273  00000+0  00000+0 0  9995
2 07392   3.1769 270.1472 0010316 238.6777  93.3901  1.00224907127126
MOLNIYA 1-29            
1 07780U 75036A   24195.88764730  .00000169  00000+0 -11423+0 0  9993
2 07780  63.4761 136.7943 6712094 283.7194  14.5397  2.00580465360814
MOLNIYA 2-14            
1 08195U 75081A   24195.78689849 -.00000626  00000+0  00000+0 0  9997
2 08195  63.6693 109.6153 6712041 288.6061  13.1444  2.02105146358199
MOLNIYA 1-32            
1 08601U 76006A   24195.42161457 -.00000912  00000+0  00000+0 0  9996
2 08601  63.6494 205.7204 6825488 281.9673  14.3145  2.00050397354147
MOLNIYA 1-36            
1 09880U 77021A   24194.39921381 -.00000975  00000+0  00000+0 0  9998
2 09880  63.5665 181.2705 6753996 286.8258  13.3290  2.00660631244536
MOLNIYA 3-8             
1 10455U 77105A   24195.20506358  .00000141  00000+0  00000+0 0  9999
2 10455  63.6334 252.3694 7048799 281.9890  12.9307  2.00408200342326
MOLNIYA 1-40            
1 10925U 78055A   24196.32793841 -.00000326  00000+0  00000+0 0  9991
2 10925  63.9126 302.7286 7141691 279.3467  13.0461  2.00517854337887
MOLNIYA 3-10            
1 11057U 78095A   24196.60644228  .00000048  00000+0  27145-3 0  9990
2 11057  63.2814 126.6880 5649380 314.8312  11.2053  4.09908793414806
MOLNIYA 3-13            
1 11896U 80063A   24195.59271653 -.00000190  00000+0 -32429-2 0  9994
2 11896  63.3733  31.6870 7328125 278.2213  11.9384  2.00575730322282
MOLNIYA 1-52            
1 13012U 81123A   24194.05291121  .00001410  00000+0  20472-1 0  9994
2 13012  61.5553 173.8710 7164300 264.7522  17.5431  2.00789156311734
MOLNIYA 1-53            
1 13070U 82015A   24195.79540751 -.00000723  00000+0 -40616-1 0  9997
2 13070  62.6577 125.2176 6945331 283.3416  13.1373  2.00395473310452
MOLNIYA 3-20            
1 13875U 83015A   24195.58853056 -.00001040  00000+0 -37842-2 0  9994
2 13875  62.0531 237.6809 7178871 266.3717  16.8442  2.00734685238901
MOLNIYA 1-63            
1 15429U 84124A   24196.10283285 -.00001333  00000+0  00000+0 0  9990
2 15429  63.6129  86.2907 7055862 256.1981 346.3063  2.00780698289955
MOLNIYA 3-24            
1 15738U 85040A   24194.30844249  .00000078  00000+0  66638-3 0  9991
2 15738  62.7575 293.5196 6907163 249.8437  27.8610  2.55655201323229
MOLNIYA 3-27            
1 16393U 85117A   24192.46959439 -.00000104  00000+0  00000+0 0  9995
2 16393  63.3481 333.8512 7178002 245.7726  27.3147  2.12400914290190
MOLNIYA 1-69            
1 17078U 86089A   24169.19921634 -.00000930  00000+0  00000+0 0  9992
2 17078  63.8371 110.4433 7028870 252.9103  24.5014  2.00458133275515
MOLNIYA 3-31            
1 17328U 87008A   24195.55834171 -.00000512  00000+0 -10902-2 0  9992
2 17328  63.2226  25.0110 7389616 253.4772  20.3130  2.00569916271055
MOLNIYA 1-71            
1 18946U 88017A   24196.02380333 -.00000122  00000+0  42608-3 0  9994
2 18946  62.9813  11.5099 7462804 258.2896  17.4211  2.00682536266254
MOLNIYA 1-75            
1 19807U 89014A   24195.33543241  .00000226  00000+0  00000+0 0  9991
2 19807  63.8387 207.8278 6615095 261.5593  24.1483  2.00570706259239
MOLNIYA 1-80            
1 21118U 91012A   24194.33261968  .00000395  00000+0  00000+0 0  9999
2 21118  65.0056 256.2517 6482026 267.3337  22.6399  2.05242968246498
MOLNIYA 3-40            
1 21196U 91022A   24194.46317200  .00000596  00000+0  00000+0 0  9994
2 21196  64.8169 250.3506 6515839 264.5510  23.6548  2.02995910245035
MOLNIYA 1-81            
1 21426U 91043A   24195.70743779  .00000164  00000+0  00000+0 0  9996
2 21426  63.5498 252.9512 6852368 263.0459  21.1829  2.00591718242357
MOLNIYA 3-41            
1 21706U 91065A   24193.95885812  .00000733  00000+0  00000+0 0  9993
2 21706  63.8512  72.1120 7262154 251.1080  22.9047  2.04336394242309
MOLNIYA 3-42            
1 22178U 92067A   24195.93078854  .00000121  00000+0  00000+0 0  9991
2 22178  64.6622 134.8544 6619807 254.9185  27.8591  2.20434889 96757
MOLNIYA 1-86            
1 22671U 93035A   24196.49634673  .00001389  00000+0  10673-2 0  9991
2 22671  63.0193 154.6337 4895636  19.4026 354.1020  5.63395781394978
MOLNIYA 1-87            
1 22949U 93079A   24192.25699505  .00000608  00000+0  00000+0 0  9995
2 22949  64.9171   3.4169 6973304 277.8486  14.5069  2.02843513 90229
MOLNIYA 1-88            
1 23420U 94081A   24195.75421408 -.00000094  00000+0  00000+0 0  9997
2 23420  64.4421  26.2514 5903743 269.4350  26.8376  3.34492443139038
MOLNIYA 3-47            
1 23642U 95042A   24195.38202758 -.00001489  00000+0  00000+0 0  9994
2 23642  64.9832 345.0853 6950832 277.8334  14.7134  2.01966856212307
MOLNIYA 1-90            
1 24960U 97054A   24195.57262266 -.00000132  00000+0 -14885-2 0  9998
2 24960  64.2982 352.5660 6089942 291.2574  16.1290  3.18686006232137
MOLNIYA 1-91            
1 25485U 98054A   24194.61188456 -.00000098  00000+0  00000+0 0  9995
2 25485  64.0462  31.5055 6823264 290.3676  11.9401  2.36440999196919
MOLNIYA 3-50            
1 25847U 99036A   24196.13821043  .00000053  00000+0 -34223-1 0  9990
2 25847  63.4698 230.5107 6993388 282.1469  13.2044  2.00579765183311
